{"type":"FeatureCollection","features":[{"type":"Feature","properties":{"postal":"AK","name":"Alaska"},"geometry":{"type":"Point","coordinates":[-154.443464039151,60.852319017937425]}},{"type":"Feature","properties":{"postal":"AL","name":"Alabama"},"geometry":{"type":"Point","coordinates":[-86.81828424133246,32.6632250361725]}},{"type":"Feature","properties":{"postal":"AR","name":"Arkansas"},"geometry":{"type":"Point","coordinates":[-92.4441659987505,34.90464400175142]}},{"type":"Feature","properties":{"postal":"AZ","name":"Arizona"},"geometry":{"type":"Point","coordinates":[-111.66029413916107,34.29147102403911]}},{"type":"Feature","properties":{"postal":"CA","name":"California"},"geometry":{"type":"Point","coordinates":[-119.42420581172921,37.23937615838273]}},{"type":"Feature","properties":{"postal":"CO","name":"Colorado"},"geometry":{"type":"Point","coordinates":[-105.53274915214041,39.00038337483695]}},{"type":"Feature","properties":{"postal":"CT","name":"Connecticut"},"geometry":{"type":"Point","coordinates":[-72.72574912481817,41.62704709557616]}},{"type":"Feature","properties":{"postal":"DC","name":"District of Columbia"},"geometry":{"type":"Point","coordinates":[-77.01922322886607,38.91826701787352]}},{"type":"Feature","properties":{"postal":"DE","name":"Delaware"},"geometry":{"type":"Point","coordinates":[-75.50551720361622,38.994856763680716]}},{"type":"Feature","properties":{"postal":"FL","name":"Florida"},"geometry":{"type":"Point","coordinates":[-83.13375896934758,28.366545649118653]}},{"type":"Feature","properties":{"postal":"GA","name":"Georgia"},"geometry":{"type":"Point","coordinates":[-83.43321875668096,32.64387832229123]}},{"type":"Feature","properties":{"postal":"HI","name":"Hawaii"},"geometry":{"type":"Point","coordinates":[-162.93194396632347,22.705606114357252]}},{"type":"Feature","properties":{"postal":"IA","name":"Iowa"},"geometry":{"type":"Point","coordinates":[-93.49475012478217,42.08714427322418]}},{"type":"Feature","properties":{"postal":"ID","name":"Idaho"},"geometry":{"type":"Point","coordinates":[-114.65172921660907,44.39287219257249]}},{"type":"Feature","properties":{"postal":"IL","name":"Illinois"},"geometry":{"type":"Point","coordinates":[-89.20105934274399,40.06763196105424]}},{"type":"Feature","properties":{"postal":"IN","name":"Indiana"},"geometry":{"type":"Point","coordinates":[-86.27769527609051,39.908288750151726]}},{"type":"Feature","properties":{"postal":"KS","name":"Kansas"},"geometry":{"type":"Point","coordinates":[-98.36833575379327,38.48523321159609]}},{"type":"Feature","properties":{"postal":"KY","name":"Kentucky"},"geometry":{"type":"Point","coordinates":[-85.41220671155229,37.58916911751558]}},{"type":"Feature","properties":{"postal":"LA","name":"Louisiana"},"geometry":{"type":"Point","coordinates":[-91.70870152310076,30.974643364541773]}},{"type":"Feature","properties":{"postal":"MA","name":"Massachusetts"},"geometry":{"type":"Point","coordinates":[-71.56815085848297,42.14238206235098]}},{"type":"Feature","properties":{"postal":"MD","name":"Maryland"},"geometry":{"type":"Point","coordinates":[-77.019759334467,39.00902724379299]}},{"type":"Feature","properties":{"postal":"ME","name":"Maine"},"geometry":{"type":"Point","coordinates":[-69.18929475995287,45.33345324797278]}},{"type":"Feature","properties":{"postal":"MI","name":"Michigan"},"geometry":{"type":"Point","coordinates":[-86.20964897497295,44.78933951896536]}},{"type":"Feature","properties":{"postal":"MN","name":"Minnesota"},"geometry":{"type":"Point","coordinates":[-94.31366829067976,46.308971030836986]}},{"type":"Feature","properties":{"postal":"MO","name":"Missouri"},"geometry":{"type":"Point","coordinates":[-92.4919565660058,38.38438695990719]}},{"type":"Feature","properties":{"postal":"MS","name":"Mississippi"},"geometry":{"type":"Point","coordinates":[-89.7224136097721,32.6172298180785]}},{"type":"Feature","properties":{"postal":"MT","name":"Montana"},"geometry":{"type":"Point","coordinates":[-109.62566648758546,47.031446998330864]}},{"type":"Feature","properties":{"postal":"NC","name":"North Carolina"},"geometry":{"type":"Point","coordinates":[-79.48913989924806,35.40185395490256]}},{"type":"Feature","properties":{"postal":"ND","name":"North Dakota"},"geometry":{"type":"Point","coordinates":[-100.45996801089397,47.4448887627362]}},{"type":"Feature","properties":{"postal":"NE","name":"Nebraska"},"geometry":{"type":"Point","coordinates":[-99.79081575072742,41.531117497823736]}},{"type":"Feature","properties":{"postal":"NH","name":"New Hampshire"},"geometry":{"type":"Point","coordinates":[-71.57951973074817,43.687986012046615]}},{"type":"Feature","properties":{"postal":"NJ","name":"New Jersey"},"geometry":{"type":"Point","coordinates":[-74.7015146062782,40.1793373855491]}},{"type":"Feature","properties":{"postal":"NM","name":"New Mexico"},"geometry":{"type":"Point","coordinates":[-106.11116616194629,34.421856499327404]}},{"type":"Feature","properties":{"postal":"NV","name":"Nevada"},"geometry":{"type":"Point","coordinates":[-116.65227457599492,39.3556733895818]}},{"type":"Feature","properties":{"postal":"NY","name":"New York"},"geometry":{"type":"Point","coordinates":[-75.42141956425434,42.66637524942704]}},{"type":"Feature","properties":{"postal":"OH","name":"Ohio"},"geometry":{"type":"Point","coordinates":[-82.79011168045523,40.29589385006724]}},{"type":"Feature","properties":{"postal":"OK","name":"Oklahoma"},"geometry":{"type":"Point","coordinates":[-97.51148482462568,35.589614421583256]}},{"type":"Feature","properties":{"postal":"OR","name":"Oregon"},"geometry":{"type":"Point","coordinates":[-120.54476271090225,43.94094036996091]}},{"type":"Feature","properties":{"postal":"PA","name":"Pennsylvania"},"geometry":{"type":"Point","coordinates":[-77.80122688831308,40.875572673256]}},{"type":"Feature","properties":{"postal":"RI","name":"Rhode Island"},"geometry":{"type":"Point","coordinates":[-71.55830835153543,41.68239984610402]}},{"type":"Feature","properties":{"postal":"SC","name":"South Carolina"},"geometry":{"type":"Point","coordinates":[-80.90018022088375,33.919693890127334]}},{"type":"Feature","properties":{"postal":"SD","name":"South Dakota"},"geometry":{"type":"Point","coordinates":[-100.22245163030925,44.44086515038971]}},{"type":"Feature","properties":{"postal":"TN","name":"Tennessee"},"geometry":{"type":"Point","coordinates":[-86.3392523334643,35.8535012843023]}},{"type":"Feature","properties":{"postal":"TX","name":"Texas"},"geometry":{"type":"Point","coordinates":[-99.67442141835586,31.564883470666864]}},{"type":"Feature","properties":{"postal":"UT","name":"Utah"},"geometry":{"type":"Point","coordinates":[-111.67422539836183,39.32765495468575]}},{"type":"Feature","properties":{"postal":"VA","name":"Virginia"},"geometry":{"type":"Point","coordinates":[-78.7109267272081,37.65682446756716]}},{"type":"Feature","properties":{"postal":"VT","name":"Vermont"},"geometry":{"type":"Point","coordinates":[-72.66628653632806,44.0759306245306]}},{"type":"Feature","properties":{"postal":"WA","name":"Washington"},"geometry":{"type":"Point","coordinates":[-120.64108653358466,47.387854756066076]}},{"type":"Feature","properties":{"postal":"WI","name":"Wisconsin"},"geometry":{"type":"Point","coordinates":[-89.93471880420971,44.723686742194985]}},{"type":"Feature","properties":{"postal":"WV","name":"West Virginia"},"geometry":{"type":"Point","coordinates":[-80.61101782869277,38.647465013993376]}},{"type":"Feature","properties":{"postal":"WY","name":"Wyoming"},"geometry":{"type":"Point","coordinates":[-107.53999867065471,43.00033532735128]}}]}